[
    {
        "Altitude(m)": 610405.2821593144,
        "Argument of Periapsis(deg)": 0.0,
        "Eccentricity": 0.0,
        "Inclination(deg)": 60.0,
        "Latitude(deg)": 52.11115881766626,
        "Longitude(deg)": -122.52248800374983,
        "Mean Anomaly(deg)": 114.54549999999999,
        "RAAN(deg)": 205.0,
        "Satellite Name": "Test1 909",
        "Satellite Number": 909,
        "Semi-Major Axis(m)": 6980739.136638005,
        "Time(s)": 0
    },
    {
        "Altitude(m)": 610321.8546547521,
        "Argument of Periapsis(deg)": 0.00010418945913296404,
        "Eccentricity": 0.0,
        "Inclination(deg)": 60.0,
        "Latitude(deg)": 51.74587280855352,
        "Longitude(deg)": -121.75359732281949,
        "Mean Anomaly(deg)": 115.16560614546184,
        "RAAN(deg)": 204.99957995086024,
        "Satellite Name": "Test1 909",
        "Satellite Number": 909,
        "Semi-Major Axis(m)": 6980739.136638005,
        "Time(s)": 10
    }
]